{"fetched_at":"2026-07-10T18:07:50.152Z","source":"https://celestrak.org/NORAD/elements/gp.php?GROUP=kuiper&FORMAT=JSON","constellation":"kuiper","records":[{"OBJECT_NAME":"KUIPER-00044","OBJECT_ID":"2025-134F","EPOCH":"2026-07-10T00:21:05.511168","CLASSIFICATION_TYPE":"U","MEAN_MOTION":14.79933085,"ECCENTRICITY":0.00006664,"INCLINATION":51.8977,"RA_OF_ASC_NODE":64.6352,"ARG_OF_PERICENTER":115.7251,"MEAN_ANOMALY":244.378,"EPHEMERIS_TYPE":0,"NORAD_CAT_ID":64505,"ELEMENT_SET_NO":999,"REV_AT_EPOCH":5801,"BSTAR":0.00033980223,"MEAN_MOTION_DOT":0.0000237,"MEAN_MOTION_DDOT":0},{"OBJECT_NAME":"KUIPER-00046","OBJECT_ID":"2025-134G","EPOCH":"2026-07-09T09:01:10.040160","CLASSIFICATION_TYPE":"U","MEAN_MOTION":14.79920612,"ECCENTRICITY":0.00006804,"INCLINATION":51.8987,"RA_OF_ASC_NODE":64.9372,"ARG_OF_PERICENTER":108.4902,"MEAN_ANOMALY":251.6134,"EPHEMERIS_TYPE":0,"NORAD_CAT_ID":64506,"ELEMENT_SET_NO":999,"REV_AT_EPOCH":5795,"BSTAR":0.00031655366,"MEAN_MOTION_DOT":0.00002192,"MEAN_MOTION_DDOT":0},{"OBJECT_NAME":"KUIPER-00047","OBJECT_ID":"2025-134H","EPOCH":"2026-07-08T19:57:18.955296","CLASSIFICATION_TYPE":"U","MEAN_MOTION":14.79924993,"ECCENTRICITY":0.00007175,"INCLINATION":51.8993,"RA_OF_ASC_NODE":39.8671,"ARG_OF_PERICENTER":102.7578,"MEAN_ANOMALY":257.3465,"EPHEMERIS_TYPE":0,"NORAD_CAT_ID":64507,"ELEMENT_SET_NO":999,"REV_AT_EPOCH":5825,"BSTAR":0.00028718253,"MEAN_MOTION_DOT":0.00001968,"MEAN_MOTION_DDOT":0},{"OBJECT_NAME":"KUIPER-00048","OBJECT_ID":"2025-134J","EPOCH":"2026-07-09T00:00:25.003296","CLASSIFICATION_TYPE":"U","MEAN_MOTION":14.79914462,"ECCENTRICITY":0.00008351,"INCLINATION":51.9008,"RA_OF_ASC_NODE":39.1329,"ARG_OF_PERICENTER":110.3456,"MEAN_ANOMALY":249.7597,"EPHEMERIS_TYPE":0,"NORAD_CAT_ID":64508,"ELEMENT_SET_NO":999,"REV_AT_EPOCH":5828,"BSTAR":0.00013621007,"MEAN_MOTION_DOT":0.00000817,"MEAN_MOTION_DDOT":0},{"OBJECT_NAME":"KUIPER-00049","OBJECT_ID":"2025-134K","EPOCH":"2026-07-10T07:17:14.331840","CLASSIFICATION_TYPE":"U","MEAN_MOTION":14.79932126,"ECCENTRICITY":0.00006241,"INCLINATION":51.8992,"RA_OF_ASC_NODE":45.8356,"ARG_OF_PERICENTER":107.1412,"MEAN_ANOMALY":252.9618,"EPHEMERIS_TYPE":0,"NORAD_CAT_ID":64509,"ELEMENT_SET_NO":999,"REV_AT_EPOCH":5830,"BSTAR":0.00033084794,"MEAN_MOTION_DOT":0.00002302,"MEAN_MOTION_DDOT":0},{"OBJECT_NAME":"KUIPER-00050","OBJECT_ID":"2025-134L","EPOCH":"2026-07-08T23:19:34.173984","CLASSIFICATION_TYPE":"U","MEAN_MOTION":14.79924471,"ECCENTRICITY":0.00007403,"INCLINATION":51.9003,"RA_OF_ASC_NODE":34.2459,"ARG_OF_PERICENTER":110.9821,"MEAN_ANOMALY":249.1221,"EPHEMERIS_TYPE":0,"NORAD_CAT_ID":64510,"ELEMENT_SET_NO":999,"REV_AT_EPOCH":5835,"BSTAR":0.00029843058,"MEAN_MOTION_DOT":0.00002054,"MEAN_MOTION_DDOT":0},{"OBJECT_NAME":"KUIPER-00051","OBJECT_ID":"2025-134M","EPOCH":"2026-07-10T00:13:44.384736","CLASSIFICATION_TYPE":"U","MEAN_MOTION":14.79923425,"ECCENTRICITY":0.00007764,"INCLINATION":51.9005,"RA_OF_ASC_NODE":45.8295,"ARG_OF_PERICENTER":106.5959,"MEAN_ANOMALY":253.5088,"EPHEMERIS_TYPE":0,"NORAD_CAT_ID":64511,"ELEMENT_SET_NO":999,"REV_AT_EPOCH":5827,"BSTAR":0.00029662622,"MEAN_MOTION_DOT":0.0000204,"MEAN_MOTION_DDOT":0},{"OBJECT_NAME":"KUIPER-00053","OBJECT_ID":"2025-134P","EPOCH":"2026-07-09T23:14:59.198208","CLASSIFICATION_TYPE":"U","MEAN_MOTION":14.81682229,"ECCENTRICITY":0.00002874,"INCLINATION":51.9012,"RA_OF_ASC_NODE":41.3162,"ARG_OF_PERICENTER":302.6013,"MEAN_ANOMALY":57.4922,"EPHEMERIS_TYPE":0,"NORAD_CAT_ID":64513,"ELEMENT_SET_NO":999,"REV_AT_EPOCH":5833,"BSTAR":0.0002232101,"MEAN_MOTION_DOT":0.0000155,"MEAN_MOTION_DDOT":0},{"OBJECT_NAME":"KUIPER-00054","OBJECT_ID":"2025-134Q","EPOCH":"2026-07-08T23:56:32.517312","CLASSIFICATION_TYPE":"U","MEAN_MOTION":14.79906563,"ECCENTRICITY":0.00008367,"INCLINATION":51.898,"RA_OF_ASC_NODE":41.6251,"ARG_OF_PERICENTER":110.5593,"MEAN_ANOMALY":249.546,"EPHEMERIS_TYPE":0,"NORAD_CAT_ID":64514,"ELEMENT_SET_NO":999,"REV_AT_EPOCH":5824,"BSTAR":0.00030824265,"MEAN_MOTION_DOT":0.00002128,"MEAN_MOTION_DDOT":0},{"OBJECT_NAME":"KUIPER-00055","OBJECT_ID":"2025-134R","EPOCH":"2026-07-09T11:42:25.278048","CLASSIFICATION_TYPE":"U","MEAN_MOTION":14.7993183,"ECCENTRICITY":0.00006783,"INCLINATION":51.9019,"RA_OF_ASC_NODE":352.0882,"ARG_OF_PERICENTER":111.1068,"MEAN_ANOMALY":248.9967,"EPHEMERIS_TYPE":0,"NORAD_CAT_ID":64515,"ELEMENT_SET_NO":999,"REV_AT_EPOCH":5898,"BSTAR":0.00031966692,"MEAN_MOTION_DOT":0.00002217,"MEAN_MOTION_DDOT":0},{"OBJECT_NAME":"KUIPER-00056","OBJECT_ID":"2025-134S","EPOCH":"2026-07-09T23:18:48.760416","CLASSIFICATION_TYPE":"U","MEAN_MOTION":14.79930654,"ECCENTRICITY":0.00007589,"INCLINATION":51.9026,"RA_OF_ASC_NODE":42.4123,"ARG_OF_PERICENTER":110.5998,"MEAN_ANOMALY":249.5045,"EPHEMERIS_TYPE":0,"NORAD_CAT_ID":64516,"ELEMENT_SET_NO":999,"REV_AT_EPOCH":5832,"BSTAR":0.0003323442,"MEAN_MOTION_DOT":0.00002313,"MEAN_MOTION_DDOT":0},{"OBJECT_NAME":"KUIPER-00057","OBJECT_ID":"2025-134T","EPOCH":"2026-07-10T07:13:20.749440","CLASSIFICATION_TYPE":"U","MEAN_MOTION":14.79936111,"ECCENTRICITY":0.00007474,"INCLINATION":51.9,"RA_OF_ASC_NODE":48.3864,"ARG_OF_PERICENTER":110.1824,"MEAN_ANOMALY":249.9219,"EPHEMERIS_TYPE":0,"NORAD_CAT_ID":64517,"ELEMENT_SET_NO":999,"REV_AT_EPOCH":5826,"BSTAR":0.00037194759,"MEAN_MOTION_DOT":0.00002616,"MEAN_MOTION_DDOT":0},{"OBJECT_NAME":"KUIPER-00058","OBJECT_ID":"2025-134U","EPOCH":"2026-07-10T00:03:32.380704","CLASSIFICATION_TYPE":"U","MEAN_MOTION":14.79924458,"ECCENTRICITY":0.00006328,"INCLINATION":51.9001,"RA_OF_ASC_NODE":44.6772,"ARG_OF_PERICENTER":115.4747,"MEAN_ANOMALY":244.6281,"EPHEMERIS_TYPE":0,"NORAD_CAT_ID":64518,"ELEMENT_SET_NO":999,"REV_AT_EPOCH":5829,"BSTAR":0.00032243819,"MEAN_MOTION_DOT":0.00002237,"MEAN_MOTION_DDOT":0},{"OBJECT_NAME":"KUIPER-00059","OBJECT_ID":"2025-134V","EPOCH":"2026-07-10T00:11:18.454272","CLASSIFICATION_TYPE":"U","MEAN_MOTION":14.79932012,"ECCENTRICITY":0.00008126,"INCLINATION":51.8998,"RA_OF_ASC_NODE":39.694,"ARG_OF_PERICENTER":109.6047,"MEAN_ANOMALY":250.5003,"EPHEMERIS_TYPE":0,"NORAD_CAT_ID":64519,"ELEMENT_SET_NO":999,"REV_AT_EPOCH":5836,"BSTAR":0.00032340643,"MEAN_MOTION_DOT":0.00002245,"MEAN_MOTION_DDOT":0},{"OBJECT_NAME":"KUIPER-00060","OBJECT_ID":"2025-134W","EPOCH":"2026-07-09T23:22:42.104352","CLASSIFICATION_TYPE":"U","MEAN_MOTION":14.79932683,"ECCENTRICITY":0.00006376,"INCLINATION":51.9013,"RA_OF_ASC_NODE":39.9065,"ARG_OF_PERICENTER":89.885,"MEAN_ANOMALY":270.2185,"EPHEMERIS_TYPE":0,"NORAD_CAT_ID":64520,"ELEMENT_SET_NO":999,"REV_AT_EPOCH":5834,"BSTAR":0.00031799588,"MEAN_MOTION_DOT":0.00002204,"MEAN_MOTION_DDOT":0},{"OBJECT_NAME":"KUIPER-00061","OBJECT_ID":"2025-134X","EPOCH":"2026-07-10T04:51:19.902816","CLASSIFICATION_TYPE":"U","MEAN_MOTION":14.79896941,"ECCENTRICITY":0.00008402,"INCLINATION":51.9007,"RA_OF_ASC_NODE":46.3492,"ARG_OF_PERICENTER":90.9826,"MEAN_ANOMALY":269.1232,"EPHEMERIS_TYPE":0,"NORAD_CAT_ID":64521,"ELEMENT_SET_NO":999,"REV_AT_EPOCH":5827,"BSTAR":0.00032686215,"MEAN_MOTION_DOT":0.00002269,"MEAN_MOTION_DDOT":0}]}
